{
  "type": "FeatureCollection",
  "features": [
    {
      "type": "Feature",
      "properties": {
        "norad_id": 31826,
        "name": "FENGYUN 1C DEB",
        "group": "fengyun-1c-debris",
        "lat": -40.93904882555078,
        "lon": -20.29346029381187,
        "alt_km": 867.1660410545901,
        "timestamp": "2025-12-06T20:37:56.356780+00:00",
        "meta_object_name": "FENGYUN 1C DEB",
        "meta_object_id": "1999-025CHQ",
        "meta_epoch": "2025-12-06T11:23:56.742720",
        "meta_mean_motion": 14.19260003,
        "meta_eccentricity": 0.01237064,
        "meta_inclination": 98.6256,
        "meta_ra_of_asc_node": 331.7661,
        "meta_arg_of_pericenter": 207.4474,
        "meta_mean_anomaly": 305.2757,
        "meta_ephemeris_type": 0,
        "meta_classification_type": "U",
        "meta_norad_cat_id": 31826,
        "meta_element_set_no": 999,
        "meta_rev_at_epoch": 95725,
        "meta_bstar": 0.00064429982,
        "meta_mean_motion_dot": 1.415e-05,
        "meta_mean_motion_ddot": 0,
        "tle_line1": "1 31826U 99025CHQ 25340.47496230  .00001415  00000+0  64430-3 0  9994",
        "tle_line2": "2 31826  98.6256 331.7661 0123706 207.4474 305.2757 14.19260003957255"
      },
      "geometry": {
        "type": "Point",
        "coordinates": [
          -20.29346029381187,
          -40.93904882555078
        ]
      }
    },
    {
      "type": "Feature",
      "properties": {
        "norad_id": 31829,
        "name": "FENGYUN 1C DEB",
        "group": "fengyun-1c-debris",
        "lat": 69.30947018011469,
        "lon": 126.67027955903094,
        "alt_km": 965.2837869604355,
        "timestamp": "2025-12-06T20:37:56.356790+00:00",
        "meta_object_name": "FENGYUN 1C DEB",
        "meta_object_id": "1999-025CHT",
        "meta_epoch": "2025-12-03T06:39:41.312736",
        "meta_mean_motion": 13.8866372,
        "meta_eccentricity": 0.0168978,
        "meta_inclination": 98.8353,
        "meta_ra_of_asc_node": 147.5933,
        "meta_arg_of_pericenter": 190.204,
        "meta_mean_anomaly": 344.9165,
        "meta_ephemeris_type": 0,
        "meta_classification_type": "U",
        "meta_norad_cat_id": 31829,
        "meta_element_set_no": 999,
        "meta_rev_at_epoch": 94016,
        "meta_bstar": 0.00067055,
        "meta_mean_motion_dot": 8.64e-06,
        "meta_mean_motion_ddot": 0,
        "tle_line1": "1 31829U 99025CHT 25337.27756149  .00000864  00000+0  67055-3 0  9992",
        "tle_line2": "2 31829  98.8353 147.5933 0168978 190.2040 344.9165 13.88663720940164"
      },
      "geometry": {
        "type": "Point",
        "coordinates": [
          126.67027955903094,
          69.30947018011469
        ]
      }
    },
    {
      "type": "Feature",
      "properties": {
        "norad_id": 31830,
        "name": "FENGYUN 1C DEB",
        "group": "fengyun-1c-debris",
        "lat": -11.410550932587832,
        "lon": -95.17393099040949,
        "alt_km": 1055.7649685493343,
        "timestamp": "2025-12-06T20:37:56.356801+00:00",
        "meta_object_name": "FENGYUN 1C DEB",
        "meta_object_id": "1999-025CHU",
        "meta_epoch": "2025-12-02T06:36:37.177056",
        "meta_mean_motion": 13.83353348,
        "meta_eccentricity": 0.0181639,
        "meta_inclination": 99.1637,
        "meta_ra_of_asc_node": 82.2262,
        "meta_arg_of_pericenter": 342.8195,
        "meta_mean_anomaly": 72.1801,
        "meta_ephemeris_type": 0,
        "meta_classification_type": "U",
        "meta_norad_cat_id": 31830,
        "meta_element_set_no": 999,
        "meta_rev_at_epoch": 92595,
        "meta_bstar": 0.0020067,
        "meta_mean_motion_dot": 2.461e-05,
        "meta_mean_motion_ddot": 0,
        "tle_line1": "1 31830U 99025CHU 25336.27543029  .00002461  00000+0  20067-2 0  9990",
        "tle_line2": "2 31830  99.1637  82.2262 0181639 342.8195  72.1801 13.83353348925954"
      },
      "geometry": {
        "type": "Point",
        "coordinates": [
          -95.17393099040949,
          -11.410550932587832
        ]
      }
    },
    {
      "type": "Feature",
      "properties": {
        "norad_id": 31834,
        "name": "FENGYUN 1C DEB",
        "group": "fengyun-1c-debris",
        "lat": -74.92396836204956,
        "lon": -125.34631086064105,
        "alt_km": 1007.0302336800296,
        "timestamp": "2025-12-06T20:37:56.356811+00:00",
        "meta_object_name": "FENGYUN 1C DEB",
        "meta_object_id": "1999-025CHY",
        "meta_epoch": "2025-12-05T21:02:55.121568",
        "meta_mean_motion": 14.03144682,
        "meta_eccentricity": 0.01626696,
        "meta_inclination": 98.369,
        "meta_ra_of_asc_node": 200.6234,
        "meta_arg_of_pericenter": 96.9001,
        "meta_mean_anomaly": 265.0702,
        "meta_ephemeris_type": 0,
        "meta_classification_type": "U",
        "meta_norad_cat_id": 31834,
        "meta_element_set_no": 999,
        "meta_rev_at_epoch": 63614,
        "meta_bstar": 0.00034844542,
        "meta_mean_motion_dot": 5.72e-06,
        "meta_mean_motion_ddot": 0,
        "tle_line1": "1 31834U 99025CHY 25339.87702687  .00000572  00000+0  34845-3 0  9991",
        "tle_line2": "2 31834  98.3690 200.6234 0162669  96.9001 265.0702 14.03144682636143"
      },
      "geometry": {
        "type": "Point",
        "coordinates": [
          -125.34631086064105,
          -74.92396836204956
        ]
      }
    },
    {
      "type": "Feature",
      "properties": {
        "norad_id": 31837,
        "name": "FENGYUN 1C DEB",
        "group": "fengyun-1c-debris",
        "lat": -41.873487569582686,
        "lon": 63.66570899722334,
        "alt_km": 616.27318192046,
        "timestamp": "2025-12-06T20:37:56.356822+00:00",
        "meta_object_name": "FENGYUN 1C DEB",
        "meta_object_id": "1999-025CJB",
        "meta_epoch": "2025-12-06T11:05:58.197696",
        "meta_mean_motion": 14.82076546,
        "meta_eccentricity": 0.0094318,
        "meta_inclination": 98.102,
        "meta_ra_of_asc_node": 55.9272,
        "meta_arg_of_pericenter": 38.0956,
        "meta_mean_anomaly": 322.6875,
        "meta_ephemeris_type": 0,
        "meta_classification_type": "U",
        "meta_norad_cat_id": 31837,
        "meta_element_set_no": 999,
        "meta_rev_at_epoch": 98266,
        "meta_bstar": 0.001865506,
        "meta_mean_motion_dot": 0.00015992,
        "meta_mean_motion_ddot": 0,
        "tle_line1": "1 31837U 99025CJB 25340.46247914  .00015992  00000+0  18655-2 0  9990",
        "tle_line2": "2 31837  98.1020  55.9272 0094318  38.0956 322.6875 14.82076546982667"
      },
      "geometry": {
        "type": "Point",
        "coordinates": [
          63.66570899722334,
          -41.873487569582686
        ]
      }
    },
    {
      "type": "Feature",
      "properties": {
        "norad_id": 31838,
        "name": "FENGYUN 1C DEB",
        "group": "fengyun-1c-debris",
        "lat": 51.92153436344436,
        "lon": 20.33497693405686,
        "alt_km": 802.3432930651416,
        "timestamp": "2025-12-06T20:37:56.356833+00:00",
        "meta_object_name": "FENGYUN 1C DEB",
        "meta_object_id": "1999-025CJC",
        "meta_epoch": "2025-12-06T08:49:21.453024",
        "meta_mean_motion": 14.21105731,
        "meta_eccentricity": 0.00388378,
        "meta_inclination": 98.7183,
        "meta_ra_of_asc_node": 31.1437,
        "meta_arg_of_pericenter": 113.4762,
        "meta_mean_anomaly": 303.75,
        "meta_ephemeris_type": 0,
        "meta_classification_type": "U",
        "meta_norad_cat_id": 31838,
        "meta_element_set_no": 999,
        "meta_rev_at_epoch": 64486,
        "meta_bstar": 0.0013391766,
        "meta_mean_motion_dot": 2.888e-05,
        "meta_mean_motion_ddot": 0,
        "tle_line1": "1 31838U 99025CJC 25340.36760941  .00002888  00000+0  13392-2 0  9993",
        "tle_line2": "2 31838  98.7183  31.1437 0038837 113.4762 303.7500 14.21105731644864"
      },
      "geometry": {
        "type": "Point",
        "coordinates": [
          20.33497693405686,
          51.92153436344436
        ]
      }
    },
    {
      "type": "Feature",
      "properties": {
        "norad_id": 31841,
        "name": "FENGYUN 1C DEB",
        "group": "fengyun-1c-debris",
        "lat": -58.390916645866746,
        "lon": 163.9450745559666,
        "alt_km": 679.2701666019257,
        "timestamp": "2025-12-06T20:37:56.356844+00:00",
        "meta_object_name": "FENGYUN 1C DEB",
        "meta_object_id": "1999-025CJF",
        "meta_epoch": "2025-12-06T06:21:25.793568",
        "meta_mean_motion": 14.03499984,
        "meta_eccentricity": 0.03088004,
        "meta_inclination": 98.4174,
        "meta_ra_of_asc_node": 149.4715,
        "meta_arg_of_pericenter": 323.8486,
        "meta_mean_anomaly": 214.4661,
        "meta_ephemeris_type": 0,
        "meta_classification_type": "U",
        "meta_norad_cat_id": 31841,
        "meta_element_set_no": 999,
        "meta_rev_at_epoch": 59248,
        "meta_bstar": 0.0025383522,
        "meta_mean_motion_dot": 6.033e-05,
        "meta_mean_motion_ddot": 0,
        "tle_line1": "1 31841U 99025CJF 25340.26488187  .00006033  00000+0  25384-2 0  9995",
        "tle_line2": "2 31841  98.4174 149.4715 0308800 323.8486 214.4661 14.03499984592489"
      },
      "geometry": {
        "type": "Point",
        "coordinates": [
          163.9450745559666,
          -58.390916645866746
        ]
      }
    }
  ]
}